[{"OBJECT_NAME":"TECHNOSAT","OBJECT_ID":"2017-042E","EPOCH":"2026-03-09T21:27:07.546176","MEAN_MOTION":15.04288119,"ECCENTRICITY":0.00196291,"INCLINATION":97.4156,"RA_OF_ASC_NODE":230.4429,"ARG_OF_PERICENTER":75.0719,"MEAN_ANOMALY":285.2679,"EPHEMERIS_TYPE":0,"CLASSIFICATION_TYPE":"U","NORAD_CAT_ID":42829,"ELEMENT_SET_NO":999,"REV_AT_EPOCH":47177,"BSTAR":0.00032015047,"MEAN_MOTION_DOT":4.417e-5,"MEAN_MOTION_DDOT":0},{"OBJECT_NAME":"STARLINK-30897","OBJECT_ID":"2023-177K","EPOCH":"2026-03-08T05:48:58.955328","MEAN_MOTION":15.02536105,"ECCENTRICITY":0.00010385,"INCLINATION":43.004,"RA_OF_ASC_NODE":359.8314,"ARG_OF_PERICENTER":267.2681,"MEAN_ANOMALY":92.8042,"EPHEMERIS_TYPE":0,"CLASSIFICATION_TYPE":"U","NORAD_CAT_ID":58360,"ELEMENT_SET_NO":999,"REV_AT_EPOCH":12799,"BSTAR":0.00011732058,"MEAN_MOTION_DOT":1.382e-5,"MEAN_MOTION_DDOT":0}]
